STARLINK-36930          
1 68018U 26040D   26066.58334491 -.00872115  28373-3 -10011-2 0  9999
2 68018  97.2826  14.5482 0001029 101.7998  79.7932 16.09055850  2086
STARLINK-36921          
1 68019U 26040E   26066.58334491 -.00863153  27983-3 -96526-3 0  9994
2 68019  97.2828  14.5508 0001162 101.7587  85.6724 16.09462245  2085
STARLINK-36928          
1 68020U 26040F   26066.58334491 -.00862719  27917-3 -97160-3 0  9995
2 68020  97.2824  14.5498 0001114  97.3335  88.5566 16.09352552  2084
STARLINK-36858          
1 68021U 26040G   26066.58334491 -.00871294  28514-3 -96765-3 0  9998
2 68021  97.2821  14.5508 0001161 103.5000  85.3687 16.09570881  2081
STARLINK-36916          
1 68022U 26040H   26066.58334491 -.00865191  28188-3 -95370-3 0  9996
2 68022  97.2824  14.5520 0001175 100.1633  90.3307 16.09686245  2086
STARLINK-36871          
1 68023U 26040J   26066.58334491 -.00853176  27505-3 -93413-3 0  9995
2 68023  97.2821  14.5523 0001088  97.7163  94.3211 16.09789233  2088
STARLINK-36891          
1 68024U 26040K   26066.58334491 -.00861817  28079-3 -93434-3 0  9997
2 68024  97.2821  14.5534 0001233 103.7916  90.1299 16.09942529  2086
STARLINK-36378          
1 68025U 26040L   26066.58334491 -.00834964  26560-3 -89181-3 0  9998
2 68025  97.2824  14.5549 0001118 101.9063  95.3462 16.10169237  2034
STARLINK-36884          
1 68026U 26040M   26066.58334491 -.00845539  27146-3 -90974-3 0  9992
2 68026  97.2821  14.5538 0001085 100.7112  94.9282 16.10058076  2083
STARLINK-36940          
1 68027U 26040N   26066.58334491 -.00774641  23764-3 -72185-3 0  9994
2 68027  97.2800  14.5696 0000953  99.5996 131.2159 16.12229492  2187
STARLINK-36253          
1 68028U 26040P   26066.58334491 -.01907380  11232-2 -32735-2 0  9996
2 68028  97.2808  14.5361 0001618 103.1712  53.9395 16.02604505  2185
STARLINK-36944          
1 68029U 26040Q   26066.58334491 -.00828910  26240-3 -87933-3 0  9994
2 68029  97.2815  14.5550 0001021  89.2709 109.4281 16.10273545  2087
STARLINK-36942          
1 68030U 26040R   26066.58334491 -.00835617  26679-3 -87931-3 0  9992
2 68030  97.2820  14.5559 0001097 100.4506  99.8932 16.10398319  2080
STARLINK-36913          
1 68031U 26040S   26066.58334491 -.00832082  26513-3 -86858-3 0  9990
2 68031  97.2817  14.5565 0001107 100.9544 101.0162 16.10521157  2082
STARLINK-36935          
1 68032U 26040T   26066.58334491 -.00805006  25212-3 -79612-3 0  9992
2 68032  97.2811  14.5611 0001191 105.5555 107.3119 16.11339343  2182
STARLINK-36947          
1 68033U 26040U   26066.58334491 -.00835409  26745-3 -86646-3 0  9990
2 68033  97.2817  14.5570 0001129  99.8270 103.4846 16.10620063  2087
