[{"OBJECT_NAME":"STARLINK-36930","OBJECT_ID":"2026-040D","EPOCH":"2026-03-07T14:00:01.000224","MEAN_MOTION":16.0905585,"ECCENTRICITY":0.00010293,"INCLINATION":97.2826,"RA_OF_ASC_NODE":14.5482,"ARG_OF_PERICENTER":101.7998,"MEAN_ANOMALY":79.7932,"EPHEMERIS_TYPE":0,"CLASSIFICATION_TYPE":"U","NORAD_CAT_ID":68018,"ELEMENT_SET_NO":999,"REV_AT_EPOCH":208,"BSTAR":-0.0010011199,"MEAN_MOTION_DOT":-0.00872115,"MEAN_MOTION_DDOT":0.00028373442},{"OBJECT_NAME":"STARLINK-36921","OBJECT_ID":"2026-040E","EPOCH":"2026-03-07T14:00:01.000224","MEAN_MOTION":16.09462245,"ECCENTRICITY":0.00011622,"INCLINATION":97.2828,"RA_OF_ASC_NODE":14.5508,"ARG_OF_PERICENTER":101.7587,"MEAN_ANOMALY":85.6724,"EPHEMERIS_TYPE":0,"CLASSIFICATION_TYPE":"U","NORAD_CAT_ID":68019,"ELEMENT_SET_NO":999,"REV_AT_EPOCH":208,"BSTAR":-0.00096525718,"MEAN_MOTION_DOT":-0.00863153,"MEAN_MOTION_DDOT":0.00027983224},{"OBJECT_NAME":"STARLINK-36928","OBJECT_ID":"2026-040F","EPOCH":"2026-03-07T14:00:01.000224","MEAN_MOTION":16.09352552,"ECCENTRICITY":0.00011142,"INCLINATION":97.2824,"RA_OF_ASC_NODE":14.5498,"ARG_OF_PERICENTER":97.3335,"MEAN_ANOMALY":88.5566,"EPHEMERIS_TYPE":0,"CLASSIFICATION_TYPE":"U","NORAD_CAT_ID":68020,"ELEMENT_SET_NO":999,"REV_AT_EPOCH":208,"BSTAR":-0.00097159793,"MEAN_MOTION_DOT":-0.00862719,"MEAN_MOTION_DDOT":0.00027917405},{"OBJECT_NAME":"STARLINK-36858","OBJECT_ID":"2026-040G","EPOCH":"2026-03-07T14:00:01.000224","MEAN_MOTION":16.09570881,"ECCENTRICITY":0.00011617,"INCLINATION":97.2821,"RA_OF_ASC_NODE":14.5508,"ARG_OF_PERICENTER":103.5,"MEAN_ANOMALY":85.3687,"EPHEMERIS_TYPE":0,"CLASSIFICATION_TYPE":"U","NORAD_CAT_ID":68021,"ELEMENT_SET_NO":999,"REV_AT_EPOCH":208,"BSTAR":-0.00096765089,"MEAN_MOTION_DOT":-0.00871294,"MEAN_MOTION_DDOT":0.00028514148},{"OBJECT_NAME":"STARLINK-36916","OBJECT_ID":"2026-040H","EPOCH":"2026-03-07T14:00:01.000224","MEAN_MOTION":16.09686245,"ECCENTRICITY":0.00011759,"INCLINATION":97.2824,"RA_OF_ASC_NODE":14.552,"ARG_OF_PERICENTER":100.1633,"MEAN_ANOMALY":90.3307,"EPHEMERIS_TYPE":0,"CLASSIFICATION_TYPE":"U","NORAD_CAT_ID":68022,"ELEMENT_SET_NO":999,"REV_AT_EPOCH":208,"BSTAR":-0.0009536999,"MEAN_MOTION_DOT":-0.00865191,"MEAN_MOTION_DDOT":0.00028188042},{"OBJECT_NAME":"STARLINK-36871","OBJECT_ID":"2026-040J","EPOCH":"2026-03-07T14:00:01.000224","MEAN_MOTION":16.09789233,"ECCENTRICITY":0.00010887,"INCLINATION":97.2821,"RA_OF_ASC_NODE":14.5523,"ARG_OF_PERICENTER":97.7163,"MEAN_ANOMALY":94.3211,"EPHEMERIS_TYPE":0,"CLASSIFICATION_TYPE":"U","NORAD_CAT_ID":68023,"ELEMENT_SET_NO":999,"REV_AT_EPOCH":208,"BSTAR":-0.00093413432,"MEAN_MOTION_DOT":-0.00853176,"MEAN_MOTION_DDOT":0.0002750466},{"OBJECT_NAME":"STARLINK-36891","OBJECT_ID":"2026-040K","EPOCH":"2026-03-07T14:00:01.000224","MEAN_MOTION":16.09942529,"ECCENTRICITY":0.00012331,"INCLINATION":97.2821,"RA_OF_ASC_NODE":14.5534,"ARG_OF_PERICENTER":103.7916,"MEAN_ANOMALY":90.1299,"EPHEMERIS_TYPE":0,"CLASSIFICATION_TYPE":"U","NORAD_CAT_ID":68024,"ELEMENT_SET_NO":999,"REV_AT_EPOCH":208,"BSTAR":-0.00093434086,"MEAN_MOTION_DOT":-0.00861817,"MEAN_MOTION_DDOT":0.00028078885},{"OBJECT_NAME":"STARLINK-36378","OBJECT_ID":"2026-040L","EPOCH":"2026-03-07T14:00:01.000224","MEAN_MOTION":16.10169237,"ECCENTRICITY":0.00011183,"INCLINATION":97.2824,"RA_OF_ASC_NODE":14.5549,"ARG_OF_PERICENTER":101.9063,"MEAN_ANOMALY":95.3462,"EPHEMERIS_TYPE":0,"CLASSIFICATION_TYPE":"U","NORAD_CAT_ID":68025,"ELEMENT_SET_NO":999,"REV_AT_EPOCH":203,"BSTAR":-0.00089181148,"MEAN_MOTION_DOT":-0.00834964,"MEAN_MOTION_DDOT":0.00026559648},{"OBJECT_NAME":"STARLINK-36884","OBJECT_ID":"2026-040M","EPOCH":"2026-03-07T14:00:01.000224","MEAN_MOTION":16.10058076,"ECCENTRICITY":0.00010851,"INCLINATION":97.2821,"RA_OF_ASC_NODE":14.5538,"ARG_OF_PERICENTER":100.7112,"MEAN_ANOMALY":94.9282,"EPHEMERIS_TYPE":0,"CLASSIFICATION_TYPE":"U","NORAD_CAT_ID":68026,"ELEMENT_SET_NO":999,"REV_AT_EPOCH":208,"BSTAR":-0.00090974003,"MEAN_MOTION_DOT":-0.00845539,"MEAN_MOTION_DDOT":0.00027146113},{"OBJECT_NAME":"STARLINK-36940","OBJECT_ID":"2026-040N","EPOCH":"2026-03-07T14:00:01.000224","MEAN_MOTION":16.12229492,"ECCENTRICITY":9.538e-5,"INCLINATION":97.28,"RA_OF_ASC_NODE":14.5696,"ARG_OF_PERICENTER":99.5996,"MEAN_ANOMALY":131.2159,"EPHEMERIS_TYPE":0,"CLASSIFICATION_TYPE":"U","NORAD_CAT_ID":68027,"ELEMENT_SET_NO":999,"REV_AT_EPOCH":218,"BSTAR":-0.00072185446,"MEAN_MOTION_DOT":-0.00774641,"MEAN_MOTION_DDOT":0.00023764489},{"OBJECT_NAME":"STARLINK-36253","OBJECT_ID":"2026-040P","EPOCH":"2026-03-07T14:00:01.000224","MEAN_MOTION":16.02604505,"ECCENTRICITY":0.00016181,"INCLINATION":97.2808,"RA_OF_ASC_NODE":14.5361,"ARG_OF_PERICENTER":103.1712,"MEAN_ANOMALY":53.9395,"EPHEMERIS_TYPE":0,"CLASSIFICATION_TYPE":"U","NORAD_CAT_ID":68028,"ELEMENT_SET_NO":999,"REV_AT_EPOCH":218,"BSTAR":-0.0032735021,"MEAN_MOTION_DOT":-0.0190738,"MEAN_MOTION_DDOT":0.0011232276},{"OBJECT_NAME":"STARLINK-36944","OBJECT_ID":"2026-040Q","EPOCH":"2026-03-07T14:00:01.000224","MEAN_MOTION":16.10273545,"ECCENTRICITY":0.00010211,"INCLINATION":97.2815,"RA_OF_ASC_NODE":14.555,"ARG_OF_PERICENTER":89.2709,"MEAN_ANOMALY":109.4281,"EPHEMERIS_TYPE":0,"CLASSIFICATION_TYPE":"U","NORAD_CAT_ID":68029,"ELEMENT_SET_NO":999,"REV_AT_EPOCH":208,"BSTAR":-0.00087932669,"MEAN_MOTION_DOT":-0.0082891,"MEAN_MOTION_DDOT":0.00026240465},{"OBJECT_NAME":"STARLINK-36942","OBJECT_ID":"2026-040R","EPOCH":"2026-03-07T14:00:01.000224","MEAN_MOTION":16.10398319,"ECCENTRICITY":0.00010974,"INCLINATION":97.282,"RA_OF_ASC_NODE":14.5559,"ARG_OF_PERICENTER":100.4506,"MEAN_ANOMALY":99.8932,"EPHEMERIS_TYPE":0,"CLASSIFICATION_TYPE":"U","NORAD_CAT_ID":68030,"ELEMENT_SET_NO":999,"REV_AT_EPOCH":208,"BSTAR":-0.00087931447,"MEAN_MOTION_DOT":-0.00835617,"MEAN_MOTION_DDOT":0.00026678862},{"OBJECT_NAME":"STARLINK-36913","OBJECT_ID":"2026-040S","EPOCH":"2026-03-07T14:00:01.000224","MEAN_MOTION":16.10521157,"ECCENTRICITY":0.00011074,"INCLINATION":97.2817,"RA_OF_ASC_NODE":14.5565,"ARG_OF_PERICENTER":100.9544,"MEAN_ANOMALY":101.0162,"EPHEMERIS_TYPE":0,"CLASSIFICATION_TYPE":"U","NORAD_CAT_ID":68031,"ELEMENT_SET_NO":999,"REV_AT_EPOCH":208,"BSTAR":-0.00086857629,"MEAN_MOTION_DOT":-0.00832082,"MEAN_MOTION_DDOT":0.00026513356},{"OBJECT_NAME":"STARLINK-36935","OBJECT_ID":"2026-040T","EPOCH":"2026-03-07T14:00:01.000224","MEAN_MOTION":16.11339343,"ECCENTRICITY":0.00011915,"INCLINATION":97.2811,"RA_OF_ASC_NODE":14.5611,"ARG_OF_PERICENTER":105.5555,"MEAN_ANOMALY":107.3119,"EPHEMERIS_TYPE":0,"CLASSIFICATION_TYPE":"U","NORAD_CAT_ID":68032,"ELEMENT_SET_NO":999,"REV_AT_EPOCH":218,"BSTAR":-0.00079612446,"MEAN_MOTION_DOT":-0.00805006,"MEAN_MOTION_DDOT":0.00025211964},{"OBJECT_NAME":"STARLINK-36947","OBJECT_ID":"2026-040U","EPOCH":"2026-03-07T14:00:01.000224","MEAN_MOTION":16.10620063,"ECCENTRICITY":0.00011294,"INCLINATION":97.2817,"RA_OF_ASC_NODE":14.557,"ARG_OF_PERICENTER":99.827,"MEAN_ANOMALY":103.4846,"EPHEMERIS_TYPE":0,"CLASSIFICATION_TYPE":"U","NORAD_CAT_ID":68033,"ELEMENT_SET_NO":999,"REV_AT_EPOCH":208,"BSTAR":-0.00086645598,"MEAN_MOTION_DOT":-0.00835409,"MEAN_MOTION_DDOT":0.00026745137}]
